[{"OBJECT_NAME":"NUSAT-49 (KLARA DAN VON NEUMANN)","OBJECT_ID":"2024-149AJ","EPOCH":"2026-03-09T19:09:16.004160","MEAN_MOTION":15.30828857,"ECCENTRICITY":0.00011321,"INCLINATION":97.3807,"RA_OF_ASC_NODE":150.738,"ARG_OF_PERICENTER":286.7761,"MEAN_ANOMALY":73.3356,"EPHEMERIS_TYPE":0,"CLASSIFICATION_TYPE":"U","NORAD_CAT_ID":60500,"ELEMENT_SET_NO":999,"REV_AT_EPOCH":8693,"BSTAR":0.00043568345,"MEAN_MOTION_DOT":0.00012912,"MEAN_MOTION_DDOT":0},{"OBJECT_NAME":"STARLINK-32818","OBJECT_ID":"2025-034H","EPOCH":"2026-03-09T22:28:11.563680","MEAN_MOTION":15.30196256,"ECCENTRICITY":0.00011625,"INCLINATION":53.1577,"RA_OF_ASC_NODE":257.0476,"ARG_OF_PERICENTER":88.3908,"MEAN_ANOMALY":271.7226,"EPHEMERIS_TYPE":0,"CLASSIFICATION_TYPE":"U","NORAD_CAT_ID":63036,"ELEMENT_SET_NO":999,"REV_AT_EPOCH":5912,"BSTAR":0.0012754495,"MEAN_MOTION_DOT":0.00037603,"MEAN_MOTION_DDOT":0}]
